SITRO-AIS 5 (KATYS)     
1 57176U 23091L   24304.38724003  .00027769  00000+0  15825-2 0  9994
2 57176  97.5955 355.6292 0016757  23.6851 336.5148 15.12640585 73907
ZORKIY-2M 1             
1 57177U 23091M   24304.53362700  .00016838  00000+0  10164-2 0  9990
2 57177  97.5972 355.4879 0017113  20.2630 339.9275 15.10665342 73905
CUBESX-HSE 3 (RS42S)    
1 57178U 23091N   24304.27269562  .00028911  00000+0  16202-2 0  9998
2 57178  97.5985 355.9560 0016265  18.4133 341.7683 15.13240882 73901
MONITOR-3 (RS58S)       
1 57180U 23091Q   24304.51317054  .00024732  00000+0  14190-2 0  9999
2 57180  97.5973 355.9039 0016582  17.7806 342.4001 15.12424689 73925
MONITOR-4 (RS57S)       
1 57182U 23091S   24304.51339902  .00024637  00000+0  14134-2 0  9999
2 57182  97.5968 355.8692 0016642  18.4132 341.7697 15.12428749 73926
MONITOR-2 (RS39S)       
1 57184U 23091U   24304.45679089  .00016918  00000+0  10336-2 0  9990
2 57184  97.5979 355.6738 0013831  15.2843 344.8802 15.10268892 73909
SVYATOBOR 1 (RS60S)     
1 57187U 23091X   24304.50100303  .00022823  00000+0  12958-2 0  9991
2 57187  97.5981 356.5429 0012821  10.6860 349.4641 15.12867037 73964
HORS 1                  
1 57188U 23091Y   24304.49784802  .00023534  00000+0  13365-2 0  9995
2 57188  97.5959 356.4287 0012302  11.6824 348.4690 15.12857861 73963
VIZARD-METEO (RS38S)    
1 57189U 23091Z   24304.49592493  .00030411  00000+0  16148-2 0  9993
2 57189  97.5971 357.2685 0011479   7.9344 352.2067 15.15208190 74014
NANOZOND 1 (RS49S)      
1 57190U 23091AA  24304.32064926  .00048996  00000+0  22537-2 0  9998
2 57190  97.5940 358.2561 0009514  11.0104 349.1337 15.20130008 74072
SITRO-AIS 6 (CHIRKIN)   
1 57192U 23091AC  24304.50050866  .00028499  00000+0  16225-2 0  9991
2 57192  97.5953 355.7723 0016612  22.8008 337.3956 15.12672115 73920
SITRO-AIS 8 (ANOKHIN)   
1 57193U 23091AD  24304.49450063  .00029029  00000+0  16236-2 0  9995
2 57193  97.5952 355.9227 0016315  23.6751 336.5227 15.13309789 73933
SITRO-AIS 7 (FARTUSHNIY)
1 57194U 23091AE  24304.31229033  .00027697  00000+0  15811-2 0  9995
2 57194  97.5950 355.5530 0016495  24.1115 336.0884 15.12583652 73895
AVION KALUGA 650        
1 57195U 23091AF  24304.48821508  .00018056  00000+0  10889-2 0  9998
2 57195  97.5993 356.0195 0013122  15.9946 344.1695 15.10736019 73929
HORS 2                  
1 57196U 23091AG  24304.49911431  .00028555  00000+0  15580-2 0  9993
2 57196  97.5975 356.9694 0012086  11.6163 348.5345 15.14250641 73998
A-SEANSAT-PG1           
1 57197U 23091AH  24304.46957844  .00030261  00000+0  16051-2 0  9990
2 57197  97.5954 357.0428 0011736  15.2521 344.9063 15.15245108 74005
YARILO 3                
1 57198U 23091AJ  24304.49671253  .00101821  00000+0  34953-2 0  9993
2 57198  97.5976   0.6793 0008245   5.5004 354.6325 15.29693196 74227
SITRO-AIS 10 (BURDAEV)  
1 57199U 23091AK  24304.48656971  .00032581  00000+0  17130-2 0  9997
2 57199  97.5969 357.2526 0011498  13.2274 346.9257 15.15542473 74015
SITRO-AIS 9 (SHCHUKIN)  
1 57201U 23091AM  24304.48734405  .00031162  00000+0  16412-2 0  9996
2 57201  97.5964 357.2202 0011378  13.4976 346.6558 15.15493805 74018
UTMN 2 (RS27S)          
1 57203U 23091AP  24304.47772346  .00026365  00000+0  14348-2 0  9998
2 57203  97.5973 356.9822 0011950   9.2553 350.8897 15.14361583 73999
SITRO-AIS 12 (SMIRENNIY)
1 57204U 23091AQ  24304.49847457  .00029760  00000+0  15593-2 0  9992
2 57204  97.5971 357.4175 0011144   7.0705 353.0682 15.15688621 74023
ARCCUBE 1 (RS25S)       
1 57205U 23091AR  24304.47780444  .00058887  00000+0  25046-2 0  9999
2 57205  97.5897 358.8104 0009317  10.7474 349.3960 15.22759199 74137
SITRO-AIS 11 (SHEFFER)  
1 57208U 23091AU  24304.47465550  .00030544  00000+0  15943-2 0  9995
2 57208  97.5970 357.4351 0011040   8.2586 351.8826 15.15818257 74023
H2SAT (HEINRICH HERTZ)  
1 57213U 23093A   24303.92235854  .00000011  00000+0  00000+0 0  9995
2 57213   0.0127 303.8077 0000739 292.4156 135.0756  1.00271018  4940
KUZGTU 1 (RS47S)        
1 57217U 23091AV  24304.49742410  .00027957  00000+0  15790-2 0  9994
2 57217  97.5958 355.9601 0016189  18.5082 341.6734 15.12969007 73935
2023-103B               
1 57422U 23103B   24303.35338002  .00124794  00000+0  53646-3 0  9998
2 57422  96.5588   6.7247 0003899 184.8807 175.2427 15.84703980 72343
FENGYUN 3F              
1 57490U 23111A   24304.46095524  .00000537  00000+0  27359-3 0  9994
2 57490  98.7565  12.2589 0001806  79.3893 280.7487 14.19921058 64464
HJ-2F                   
1 57519U 23116A   24304.50416343  .00032383  00000+0  13991-2 0  9992
2 57519  97.3897 309.1666 0015421 236.9415 123.0341 15.22310375 68294
XRISM                   
1 57800U 23137A   24304.16976650  .00020118  00000+0  14149-2 0  9991
2 57800  31.0028 231.8735 0008099 108.8663 251.2852 15.03935452 63004
VERONIKA                
1 58261U 23174F   24304.46663190  .00074924  00000+0  24381-2 0  9992
2 58261  97.4470  18.7307 0010616 125.5310 234.6923 15.31528858 54332
2024-149A               
1 60468U 24149A   24303.78996378  .00020480  00000+0  97159-3 0  9990
2 60468  97.4333  18.0961 0004640 152.3377 207.8105 15.19291174 11221
WARATAH SEED-1          
1 60469U 24149B   24303.78200933  .00018149  00000+0  85254-3 0  9998
2 60469  97.4325  18.0996 0003340 147.2827 212.8615 15.19662537 11227
PHISAT 2                
1 60470U 24149C   24303.79176798  .00033383  00000+0  15823-2 0  9993
2 60470  97.4362  18.1226 0002514 142.4163 217.7248 15.19224110 11226
LEMUR-2-TOMATOKECHUP    
1 60471U 24149D   24303.78082886  .00024582  00000+0  11540-2 0  9990
2 60471  97.4387  18.1587 0002826 160.5588 199.5755 15.19622169 11228
CONNECTA IOT-1          
1 60472U 24149E   24303.46777341  .00014690  00000+0  71019-3 0  9990
2 60472  97.4368  17.7917 0002445 165.2332 194.8974 15.18712529 11170
LOPEN                   
1 60473U 24149F   24303.70539917  .00027458  00000+0  12763-2 0  9999
2 60473  97.4376  18.0986 0002083 175.9720 184.1532 15.19943231 11211
ROCK                    
1 60474U 24149G   24304.16588495  .00031108  00000+0  14433-2 0  9999
2 60474  97.4380  18.5532 0002099 174.1410 185.9850 15.19980144 11286
CONNECTA IOT-3          
1 60475U 24149H   24303.72496875  .00023737  00000+0  11315-2 0  9996
2 60475  97.4315  18.0129 0003967 185.9810 174.1378 15.19096716 11212
QUBE                    
1 60476U 24149J   24304.54545601  .00035152  00000+0  16008-2 0  9998
2 60476  97.4376  18.9652 0003232 175.4165 184.7101 15.20593225 11346
SATORO-T2               
1 60477U 24149K   24303.19962253  .00045447  00000+0  20000-2 0  9990
2 60477  97.4343  17.6680 0003359 166.8434 193.2890 15.21703390 11146
WREN-1                  
1 60478U 24149L   24303.68157917  .00035128  00000+0  15869-2 0  9990
2 60478  97.4359  18.1100 0006467 207.3682 152.7214 15.20856043 11217
TOMORROW-S1             
1 60479U 24149M   24303.77394252  .00022204  00000+0  10418-2 0  9992
2 60479  97.4329  18.1146 0003426 183.2444 176.8770 15.19661562 11228
FLOCK 4BE-18            
1 60480U 24149N   24304.15983503  .00031920  00000+0  14764-2 0  9993
2 60480  97.4341  18.5293 0005550 199.0460 161.0568 15.20070365 11288
FLOCK 4BE-7             
1 60481U 24149P   24304.55303745  .00027791  00000+0  12860-2 0  9998
2 60481  97.4373  18.9523 0004510 193.9275 166.1836 15.20089209 11344
FLOCK 4BE-4             
1 60482U 24149Q   24303.93977769  .00141994  00000+0  53863-2 0  9993
2 60482  97.4359  18.5400 0005124 217.7456 142.3423 15.26236374 11269
FLOCK 4BE-16            
1 60483U 24149R   24304.15430678  .00031818  00000+0  14633-2 0  9997
2 60483  97.4357  18.5529 0003669 191.7664 168.3486 15.20275650 11287
FLOCK 4BE-26            
1 60484U 24149S   24303.95463296  .00027751  00000+0  12811-2 0  9994
2 60484  97.4331  18.3281 0004648 197.3752 162.7325 15.20170982 11250
TOMORROW-S2             
1 60485U 24149T   24304.15375749  .00025100  00000+0  11539-2 0  9995
2 60485  97.4392  18.5823 0003619 186.4845 173.6344 15.20340224 11284
FLOCK 4BE-36            
1 60486U 24149U   24303.95314000  .00030950  00000+0  14206-2 0  9999
2 60486  97.4340  18.3386 0005334 209.5362 150.5572 15.20342561 11257
FLOCK 4BE-25            
1 60487U 24149V   24303.95244818  .00027595  00000+0  12742-2 0  9993
2 60487  97.4389  18.3930 0003519 192.1513 167.9638 15.20167381 11254
FLOCK 4BE-31            
1 60488U 24149W   24304.14410748  .00031421  00000+0  14350-2 0  9993
2 60488  97.4392  18.5951 0003792 200.8174 159.2907 15.20517535 11283
FLOCK 4BE-20            
1 60489U 24149X   24304.47709521  .00026000  00000+0  12007-2 0  9994
2 60489  97.4318  18.8415 0005161 200.5928 159.5100 15.20170467 11339
FLOCK 4BE-23            
1 60490U 24149Y   24304.54933229  .00025394  00000+0  11774-2 0  9993
2 60490  97.4378  18.9640 0004802 199.4025 160.7028 15.20038442 11343
FLOCK 4BE-15            
1 60491U 24149Z   24303.95048794  .00029561  00000+0  13575-2 0  9993
2 60491  97.4319  18.3202 0004533 207.6811 152.4183 15.20339088 11253
FLOCK 4BE-17            
1 60492U 24149AA  24304.15150181  .00030721  00000+0  14183-2 0  9997
2 60492  97.4392  18.5898 0004138 202.4012 157.7043 15.20148330 11289
NUSAT-50 (NANCY ROMAN)  
1 60493U 24149AB  24304.14610107  .00028895  00000+0  13285-2 0  9997
2 60493  97.4371  18.5766 0004519 204.1730 155.9293 15.20303403 11281
FLOCK 4BE-22            
1 60494U 24149AC  24304.21094451  .00031006  00000+0  14204-2 0  9994
2 60494  97.4334  18.5987 0005435 214.8310 145.2571 15.20408399 11298
FLOCK 4BE-34            
1 60495U 24149AD  24303.94876072  .00020955  00000+0  97047-3 0  9999
2 60495  97.4380  18.3901 0004497 201.8217 158.2827 15.20120870 11252
TYCHE                   
1 60496U 24149AE  24304.56024900  .00017685  00000+0  83821-3 0  9995
2 60496  97.4364  18.9321 0004297 212.5329 147.5641 15.19356542 11348
